[{"OBJECT_NAME":"STARLINK-2640","OBJECT_ID":"2021-040L","EPOCH":"2026-03-09T14:24:31.425408","MEAN_MOTION":15.30197527,"ECCENTRICITY":0.0001313,"INCLINATION":53.1614,"RA_OF_ASC_NODE":178.5516,"ARG_OF_PERICENTER":101.7089,"MEAN_ANOMALY":258.4059,"EPHEMERIS_TYPE":0,"CLASSIFICATION_TYPE":"U","NORAD_CAT_ID":48438,"ELEMENT_SET_NO":999,"REV_AT_EPOCH":26666,"BSTAR":-4.3242e-5,"MEAN_MOTION_DOT":-1.64e-5,"MEAN_MOTION_DDOT":0},{"OBJECT_NAME":"SITRO-AIS 8 (ANOKHIN)","OBJECT_ID":"2023-091AD","EPOCH":"2026-03-09T23:44:40.058592","MEAN_MOTION":15.29359179,"ECCENTRICITY":0.0012509,"INCLINATION":97.5169,"RA_OF_ASC_NODE":133.2823,"ARG_OF_PERICENTER":92.0171,"MEAN_ANOMALY":268.2501,"EPHEMERIS_TYPE":0,"CLASSIFICATION_TYPE":"U","NORAD_CAT_ID":57193,"ELEMENT_SET_NO":999,"REV_AT_EPOCH":14927,"BSTAR":0.00064982524,"MEAN_MOTION_DOT":0.00018494,"MEAN_MOTION_DDOT":0}]
